{
    "AO": {
        "phoneCode": 244,
        "capitalCity": "Luanda",
        "flagEmoji": "ðŸ‡¦ðŸ‡´",
        "name": "Angola",
        "currency": "Angolan kwanza",
        "officialLanguage": "Portuguese"
    },
    "BJ": {
        "phoneCode": 229,
        "capitalCity": "Porto-Novo ",
        "flagEmoji": "ðŸ‡§ðŸ‡¯",
        "name": "Benin",
        "currency": "West African CFA franc",
        "officialLanguage": "French"
    },
    "BW": {
        "phoneCode": 267,
        "capitalCity": "Gaborone",
        "flagEmoji": "ðŸ‡§ðŸ‡¼",
        "name": "Botswana",
        "currency": "Botswana pula",
        "officialLanguage": "Setswana"
    },
    "BF": {
        "phoneCode": 226,
        "capitalCity": "Ouagadougou",
        "flagEmoji": "ðŸ‡§ðŸ‡«",
        "name": "Burkina Faso",
        "currency": "West African CFA franc",
        "officialLanguage": "French"
    },
    "BI": {
        "phoneCode": 257,
        "capitalCity": "Bujumbura",
        "flagEmoji": "ðŸ‡§ðŸ‡®",
        "name": "Burundi",
        "currency": "Burundi franc",
        "officialLanguage": "Kirundi"
    },
    "CV": {
        "phoneCode": 238,
        "capitalCity": "Praia",
        "flagEmoji": "ðŸ‡¨ðŸ‡»",
        "name": "Cabo Verde",
        "currency": "Cape Verdean escudo",
        "officialLanguage": "Portuguese"
    },
    "CM": {
        "phoneCode": 237,
        "capitalCity": "YaoundÃ©",
        "flagEmoji": "ðŸ‡¨ðŸ‡²",
        "name": "Cameroon",
        "currency": "Central African CFA franc",
        "officialLanguage": "Major African languages"
    },
    "CF": {
        "phoneCode": 236,
        "capitalCity": "Bangui",
        "flagEmoji": "ðŸ‡¨ðŸ‡«",
        "name": "Central African Republic",
        "currency": "Central African CFA franc",
        "officialLanguage": "French"
    },
    "DZ": {
      "phoneCode": 213,
      "capitalCity": "Algiers",
      "flagEmoji": "ðŸ‡©ðŸ‡¿",
      "name": "Algeria",
      "currency": "Algerian dinar",
      "officialLanguage": "Arabic"
    },
    "TD": {
        "phoneCode": 235,
        "capitalCity": "N'Djamena",
        "flagEmoji": "ðŸ‡¹ðŸ‡©",
        "name": "Chad",
        "currency": "Central African CFA franc",
        "officialLanguage": "French"
    },
    "KM": {
        "phoneCode": 269,
        "capitalCity": "Moroni",
        "flagEmoji": "ðŸ‡°ðŸ‡²",
        "name": "Comoros",
        "currency": "Comorian franc",
        "officialLanguage": "Arabic"
    },
    "CD": {
        "phoneCode": 243,
        "capitalCity": "Kinshasa",
        "flagEmoji": "ðŸ‡¨ðŸ‡©",
        "name": "Democratic Republic of the Congo",
        "currency": "Congolese franc",
        "officialLanguage": "French"
    },
    "CG": {
        "phoneCode": 242,
        "capitalCity": "Brazzaville",
        "flagEmoji": "ðŸ‡¨ðŸ‡¬",
        "name": "Republic of the Congo",
        "currency": "Central African CFA franc",
        "officialLanguage": "French"
    },
    "CI": {
        "phoneCode": 225,
        "capitalCity": "Yamoussoukro",
        "flagEmoji": "ðŸ‡¨ðŸ‡®",
        "name": "Cote D'Ivoire",
        "currency": "West African CFA franc",
        "officialLanguage": "French"
    },
    "DJ": {
        "phoneCode": 253,
        "capitalCity": "Djibouti (city)",
        "flagEmoji": "ðŸ‡©ðŸ‡¯",
        "name": "Djibouti",
        "currency": "Djiboutian franc",
        "officialLanguage": "French"
    },
    "EG": {
        "phoneCode": 20,
        "capitalCity": "Cairo",
        "flagEmoji": "ðŸ‡ªðŸ‡¬",
        "name": "Egypt",
        "currency": "Egyptian Pound",
        "officialLanguage": "Arabic"
    },
    "GQ": {
        "phoneCode": 240,
        "capitalCity": "Malabo",
        "flagEmoji": "ðŸ‡¬ðŸ‡¶",
        "name": "Equatorial Guinea",
        "currency": "Central African CFA franc",
        "officialLanguage": "Spanish"
    },
    "ER": {
        "phoneCode": 291,
        "capitalCity": "Asmara",
        "flagEmoji": "ðŸ‡ªðŸ‡·",
        "name": "Eritrea",
        "currency": "Eritrean nakfa",
        "officialLanguage": "Afar"
    },
    "ET": {
        "phoneCode": 251,
        "capitalCity": "Addis Ababa",
        "flagEmoji": "ðŸ‡ªðŸ‡¹",
        "name": "Ethiopia",
        "currency": "Ethiopian birr",
        "officialLanguage": "Amharic"
    },
    "GA": {
        "phoneCode": 241,
        "capitalCity": "Libreville",
        "flagEmoji": "ðŸ‡¬ðŸ‡¦",
        "name": "Gabon",
        "currency": "Central African CFA franc",
        "officialLanguage": "French"
    },
    "GH": {
        "phoneCode": 233,
        "capitalCity": "Accra",
        "flagEmoji": "ðŸ‡¬ðŸ‡­",
        "name": "Ghana",
        "currency": "Ghanaian cedi",
        "officialLanguage": "English"
    },
    "GM": {
        "phoneCode": 220,
        "capitalCity": "Banjul",
        "flagEmoji": "ðŸ‡¬ðŸ‡²",
        "name": "Gambia",
        "currency": "Dalasi",
        "officialLanguage": "English"
    },
    "GN": {
        "phoneCode": 224,
        "capitalCity": "Conakry",
        "flagEmoji": "ðŸ‡¬ðŸ‡³",
        "name": "Guinea",
        "currency": "Guinean franc",
        "officialLanguage": "French"
    },
    "GW": {
        "phoneCode": 245,
        "capitalCity": "Bissau",
        "flagEmoji": "ðŸ‡¬ðŸ‡¼",
        "name": "Guinea-Bissau",
        "currency": "West African CFA franc",
        "officialLanguage": "Portuguese"
    },
    "KE": {
        "phoneCode": 254,
        "capitalCity": "Nairobi",
        "flagEmoji": "ðŸ‡°ðŸ‡ª",
        "name": "Kenya",
        "currency": "Kenyan shilling",
        "officialLanguage": "English"
    },
    "LS": {
        "phoneCode": 266,
        "capitalCity": "Maseru",
        "flagEmoji": "ðŸ‡±ðŸ‡¸",
        "name": "Lesotho",
        "currency": "Lesotho loti",
        "officialLanguage": "Sesotho"
    },
    "LR": {
        "phoneCode": 231,
        "capitalCity": "Monrovia",
        "flagEmoji": "ðŸ‡±ðŸ‡·",
        "name": "Liberia",
        "currency": "Liberian Dollar",
        "officialLanguage": "English"
    },
    "LY": {
        "phoneCode": 218,
        "capitalCity": "Tripoli",
        "flagEmoji": "ðŸ‡±ðŸ‡¾",
        "name": "Libya",
        "currency": "Libyan dinar",
        "officialLanguage": "Arabic"
    },
    "MG": {
        "phoneCode": 261,
        "capitalCity": "Antananarivo",
        "flagEmoji": "ðŸ‡²ðŸ‡¬",
        "name": "Madagascar",
        "currency": "Malagasy ariary",
        "officialLanguage": "French"
    },
    "MW": {
        "phoneCode": 265,
        "capitalCity": "Lilongwe",
        "flagEmoji": "ðŸ‡²ðŸ‡¼",
        "name": "Malawi",
        "currency": "Malawian kwacha",
        "officialLanguage": "Chichewa"
    },
    "ML": {
        "phoneCode": 223,
        "capitalCity": "Bamako",
        "flagEmoji": "ðŸ‡²ðŸ‡±",
        "name": "Mali",
        "currency": "West African CFA franc",
        "officialLanguage": "French"
    },
    "MR": {
        "phoneCode": 222,
        "capitalCity": "Nouakchott",
        "flagEmoji": "ðŸ‡²ðŸ‡·",
        "name": "Mauritania",
        "currency": "Mauritanian ouguiya",
        "officialLanguage": "Arabic"
    },
    "MU": {
        "phoneCode": 230,
        "capitalCity": "Port Louis",
        "flagEmoji": "ðŸ‡²ðŸ‡º",
        "name": "Mauritius",
        "currency": "Mauritian rupee",
        "officialLanguage": "Creole"
    },
    "MA": {
        "phoneCode": 212,
        "capitalCity": "Rabat",
        "flagEmoji": "ðŸ‡²ðŸ‡¦",
        "name": "Morocco",
        "currency": "Moroccan dirham",
        "officialLanguage": "Arabic"
    },
    "MZ": {
        "phoneCode": 258,
        "capitalCity": "Maputo",
        "flagEmoji": "ðŸ‡²ðŸ‡¿",
        "name": "Mozambique",
        "currency": "Mozambican metical",
        "officialLanguage": "Emakhuwa"
    },
    "NA": {
        "phoneCode": 264,
        "capitalCity": "Windhoek",
        "flagEmoji": "ðŸ‡³ðŸ‡¦",
        "name": "Namibia",
        "currency": "Namibian Dollar",
        "officialLanguage": null
    },
    "NE": {
        "phoneCode": 227,
        "capitalCity": "Niamey",
        "flagEmoji": "ðŸ‡³ðŸ‡ª",
        "name": "Niger",
        "currency": "West African CFA franc",
        "officialLanguage": "French"
    },
    "NG": {
        "phoneCode": 234,
        "capitalCity": "Abuja",
        "flagEmoji": "ðŸ‡³ðŸ‡¬",
        "name": "Nigeria",
        "currency": "Nigerian naira",
        "officialLanguage": "English"
    },
    "RW": {
        "phoneCode": 250,
        "capitalCity": "Kigali",
        "flagEmoji": "ðŸ‡·ðŸ‡¼",
        "name": "Rwanda",
        "currency": "Rwandan franc",
        "officialLanguage": "Kinyarwanda"
    },
    "ST": {
        "phoneCode": 239,
        "capitalCity": "SÃ£o TomÃ©",
        "flagEmoji": "ðŸ‡¸ðŸ‡¹",
        "name": "Sao Tome And Principe",
        "currency": "Sao Tome and Principe dobra",
        "officialLanguage": "Portuguese"
    },
    "SN": {
        "phoneCode": 221,
        "capitalCity": "Dakar",
        "flagEmoji": "ðŸ‡¸ðŸ‡³",
        "name": "Senegal",
        "currency": "West African CFA franc",
        "officialLanguage": "French"
    },
    "SC": {
        "phoneCode": 248,
        "capitalCity": "Victoria",
        "flagEmoji": "ðŸ‡¸ðŸ‡¨",
        "name": "Seychelles",
        "currency": "Seychellois rupee",
        "officialLanguage": "Creole"
    },
    "SL": {
        "phoneCode": 232,
        "capitalCity": "Freetown",
        "flagEmoji": "ðŸ‡¸ðŸ‡±",
        "name": "Sierra Leone",
        "currency": "Sierra Leonean leone",
        "officialLanguage": "English"
    },
    "SO": {
        "phoneCode": 252,
        "capitalCity": "Mogadishu",
        "flagEmoji": "ðŸ‡¸ðŸ‡´",
        "name": "Somalia",
        "currency": "Somali shilling",
        "officialLanguage": "Somali"
    },
    "ZA": {
        "phoneCode": 27,
        "capitalCity": "Pretoria / Cape Town",
        "flagEmoji": "ðŸ‡¿ðŸ‡¦",
        "name": "South Africa",
        "currency": "South African rand",
        "officialLanguage": "IsiZulu"
    },
    "SS": {
        "phoneCode": 211,
        "capitalCity": "Juba",
        "flagEmoji": "ðŸ‡¸ðŸ‡¸",
        "name": "South Sudan",
        "currency": "South Sudanese Pound",
        "officialLanguage": "Arabic"
    },
    "SD": {
        "phoneCode": 249,
        "capitalCity": "Khartoum",
        "flagEmoji": "ðŸ‡¸ðŸ‡©",
        "name": "Sudan",
        "currency": "Sudanese Pound",
        "officialLanguage": "Arabic"
    },
    "SZ": {
        "phoneCode": 268,
        "capitalCity": "Mbabane",
        "flagEmoji": "ðŸ‡¸ðŸ‡¿",
        "name": "Eswatini",
        "currency": "Swazi lilangeni",
        "officialLanguage": "English"
    },
    "TZ": {
        "phoneCode": 255,
        "capitalCity": "Dodoma",
        "flagEmoji": "ðŸ‡¹ðŸ‡¿",
        "name": "Tanzania",
        "currency": "Tanzanian shilling",
        "officialLanguage": "Kiswahili or Swahili"
    },
    "TG": {
        "phoneCode": 228,
        "capitalCity": "LomÃ©",
        "flagEmoji": "ðŸ‡¹ðŸ‡¬",
        "name": "Togo",
        "currency": "West African CFA franc",
        "officialLanguage": "French"
    },
    "TN": {
        "phoneCode": 216,
        "capitalCity": "Tunis",
        "flagEmoji": "ðŸ‡¹ðŸ‡³",
        "name": "Tunisia",
        "currency": "Tunisian dinar",
        "officialLanguage": "Arabic"
    },
    "UG": {
        "phoneCode": 256,
        "capitalCity": "Kampala",
        "flagEmoji": "ðŸ‡ºðŸ‡¬",
        "name": "Uganda",
        "currency": "Ugandan shilling",
        "officialLanguage": "English"
    },
    "ZM": {
        "phoneCode": 260,
        "capitalCity": "Lusaka",
        "flagEmoji": "ðŸ‡¿ðŸ‡²",
        "name": "Zambia",
        "currency": "Zambian kwacha",
        "officialLanguage": "English"
    },
    "ZW": {
        "phoneCode": 263,
        "capitalCity": "Harare",
        "flagEmoji": "ðŸ‡¿ðŸ‡¼",
        "name": "Zimbabwe",
        "currency": "United States Dollar",
        "officialLanguage": "English"
    }
  }